KAITUO 1B               
1 40912U 15049P   18004.06917888  .00001390  00000-0  70840-4 0  9991
2 40912  97.4510  13.7676 0014205 217.3976 189.3810 15.18348553126766
TIANWANG 1C (TW-1C)     
1 40926U 15051B   18004.10696757  .00007216  00000-0  14699-3 0  9995
2 40926  97.2057  47.3188 0011446 148.5250 266.1780 15.46480090127934
TIANWANG 1B (TW-1B)     
1 40927U 15051C   18004.07069499  .00007232  00000-0  15331-3 0  9991
2 40927  97.2148  47.2034 0011106 160.1397 283.7683 15.45312958127854
TIANWANG 1A (TW-1A)     
1 40928U 15051D   18004.07170434  .00003156  00000-0  87200-4 0  9990
2 40928  97.2052  41.2251 0011575 186.1792 226.1983 15.37724867127559
LAPAN-A2 (IO-86)        
1 40931U 15052B   18004.12666174  .00000684  00000-0  62693-5 0  9995
2 40931   5.9955 239.9776 0013009 210.4304 149.5098 14.76561112122715
LQSAT                   
1 40958U 15057A   18004.11772838  .00000021  00000-0  10974-4 0  9992
2 40958  97.9599  80.7217 0019055 139.0645 221.2006 14.73010176120690
CHUBUSAT-2              
1 41338U 16012B   18003.94225878  .00000319  00000-0  18197-4 0  9999
2 41338  31.0034 277.1067 0014045 246.8313 113.0843 14.99899589103154
CHUBUSAT-3              
1 41339U 16012C   18004.04337930  .00000316  00000-0  17852-4 0  9999
2 41339  31.0093 275.2967 0013828 254.7837 105.1279 15.00092736103152
OUFTI-1                 
1 41458U 16025C   18004.15017905  .00002042  00000-0  11129-3 0  9992
2 41458  98.1597  58.0923 0170779 337.8496  21.5429 15.04124196 92772
E-ST@R-II               
1 41459U 16025D   18004.13005585  .00001712  00000-0  94518-4 0  9999
2 41459  98.1628  57.9716 0171425 338.7135  20.7031 15.03899479 92766
AAUSAT 4                
1 41460U 16025E   18004.12053923  .00002110  00000-0  11466-3 0  9992
2 41460  98.1541  58.2348 0163093 335.8144  23.5488 15.05128228 92808
NUSAT 1 (LO-87)         
1 41557U 16033B   18004.19856400  .00001191  00000-0  46437-4 0  9991
2 41557  97.4492  88.6587 0014463  23.9499 336.2410 15.27885882 89117
BEESAT-4                
1 41619U 16040W   18003.23208145  .00001423  00000-0  65971-4 0  9991
2 41619  97.4382  68.5111 0013415  89.3203 270.9570 15.21629806 73007
PRATHAM                 
1 41783U 16059A   18004.11948378  .00000053  00000-0  19827-4 0  9997
2 41783  98.1418  68.1335 0032456 249.8126 109.9584 14.62891930 67972
ALSAT 1N                
1 41789U 16059G   18004.07774321  .00000079  00000-0  24238-4 0  9993
2 41789  98.1425  68.9869 0026987 242.8409 117.0051 14.64116270 68008
NAYIF-1 (EO-88)         
1 42017U 17008BX  18003.90195405  .00001443  00000-0  62727-4 0  9995
2 42017  97.4709  69.7976 0005304 227.6690 132.4098 15.23911889 49041
LILACSAT-1              
1 42725U 98067ME  18004.13788516  .00015874  00000-0  18062-3 0  9997
2 42725  51.6384 110.1848 0005225 336.7944  23.2813 15.62457439 34813
MAX VALIER SAT          
1 42778U 17036P   18003.92078066  .00000909  00000-0  44156-4 0  9997
2 42778  97.4271  66.1866 0011181 286.6901  73.3107 15.20954923 29537
FOX-1B (AO-91)          
1 43017U 17073E   18003.76455337  .00000558  00000-0  48781-4 0  9995
2 43017  97.6960 301.8889 0262056  86.8397 276.2760 14.77822186  6825
